[
    {
        "Altitude(m)": 570588.0253257264,
        "Argument of Periapsis(deg)": 0.013245982221427002,
        "Eccentricity": 0.0,
        "Inclination(deg)": 53.0,
        "Latitude(deg)": -49.93592535074279,
        "Longitude(deg)": -98.56282077042817,
        "Mean Anomaly(deg)": -107.08951426484481,
        "RAAN(deg)": 119.98028673705602,
        "Satellite Name": "Starlink Shell 1 542",
        "Satellite Number": 542,
        "Semi-Major Axis(m)": 6931778.249405717,
        "Time(s)": 380
    },
    {
        "Altitude(m)": 570676.6408017301,
        "Argument of Periapsis(deg)": 0.013594560700938237,
        "Eccentricity": 0.0,
        "Inclination(deg)": 53.0,
        "Latitude(deg)": -50.158986152754466,
        "Longitude(deg)": -97.6975657653967,
        "Mean Anomaly(deg)": -106.46268306128816,
        "RAAN(deg)": 119.97976796697857,
        "Satellite Name": "Starlink Shell 1 542",
        "Satellite Number": 542,
        "Semi-Major Axis(m)": 6931778.249405717,
        "Time(s)": 390
    },
    {
        "Altitude(m)": 570762.2411493091,
        "Argument of Periapsis(deg)": 0.013943139180449475,
        "Eccentricity": 0.0,
        "Inclination(deg)": 53.0,
        "Latitude(deg)": -50.374898531256406,
        "Longitude(deg)": -96.82398837712921,
        "Mean Anomaly(deg)": -105.8358518577314,
        "RAAN(deg)": 119.97924919690107,
        "Satellite Name": "Starlink Shell 1 542",
        "Satellite Number": 542,
        "Semi-Major Axis(m)": 6931778.249405717,
        "Time(s)": 400
    },
    {
        "Altitude(m)": 570844.7923070955,
        "Argument of Periapsis(deg)": 0.014291717659960712,
        "Eccentricity": 0.0,
        "Inclination(deg)": 53.0,
        "Latitude(deg)": -50.583543620071175,
        "Longitude(deg)": -95.94222576778833,
        "Mean Anomaly(deg)": -105.2090206541747,
        "RAAN(deg)": 119.97873042682359,
        "Satellite Name": "Starlink Shell 1 542",
        "Satellite Number": 542,
        "Semi-Major Axis(m)": 6931778.249405717,
        "Time(s)": 410
    },
    {
        "Altitude(m)": 570924.2614160806,
        "Argument of Periapsis(deg)": 0.014640296139471948,
        "Eccentricity": 0.0,
        "Inclination(deg)": 53.0,
        "Latitude(deg)": -50.784804091999064,
        "Longitude(deg)": -95.05243115235496,
        "Mean Anomaly(deg)": -104.58218945061788,
        "RAAN(deg)": 119.97821165674614,
        "Satellite Name": "Starlink Shell 1 542",
        "Satellite Number": 542,
        "Semi-Major Axis(m)": 6931778.249405717,
        "Time(s)": 420
    },
    {
        "Altitude(m)": 571000.6168339223,
        "Argument of Periapsis(deg)": 0.014988874618983185,
        "Eccentricity": 0.0,
        "Inclination(deg)": 53.0,
        "Latitude(deg)": -50.97856441810966,
        "Longitude(deg)": -94.15477354557231,
        "Mean Anomaly(deg)": -103.95535824706118,
        "RAAN(deg)": 119.97769288666865,
        "Satellite Name": "Starlink Shell 1 542",
        "Satellite Number": 542,
        "Semi-Major Axis(m)": 6931778.249405717,
        "Time(s)": 430
    },
    {
        "Altitude(m)": 571073.8281486836,
        "Argument of Periapsis(deg)": 0.015337453098494424,
        "Eccentricity": 0.0,
        "Inclination(deg)": 53.0,
        "Latitude(deg)": -51.16471113368405,
        "Longitude(deg)": -93.24943745285809,
        "Mean Anomaly(deg)": -103.32852704350456,
        "RAAN(deg)": 119.97717411659119,
        "Satellite Name": "Starlink Shell 1 542",
        "Satellite Number": 542,
        "Semi-Major Axis(m)": 6931778.249405717,
        "Time(s)": 440
    },
    {
        "Altitude(m)": 571143.866192042,
        "Argument of Periapsis(deg)": 0.01568603157800566,
        "Eccentricity": 0.0,
        "Inclination(deg)": 53.0,
        "Latitude(deg)": -51.34313310977227,
        "Longitude(deg)": -92.33662401320277,
        "Mean Anomaly(deg)": -102.70169583994782,
        "RAAN(deg)": 119.97665534651371,
        "Satellite Name": "Starlink Shell 1 542",
        "Satellite Number": 542,
        "Semi-Major Axis(m)": 6931778.249405717,
        "Time(s)": 450
    },
    {
        "Altitude(m)": 571210.7030519693,
        "Argument of Periapsis(deg)": 0.0160346100575169,
        "Eccentricity": 0.0,
        "Inclination(deg)": 53.0,
        "Latitude(deg)": -51.5137218292181,
        "Longitude(deg)": -91.41655056365836,
        "Mean Anomaly(deg)": -102.07486463639113,
        "RAAN(deg)": 119.97613657643623,
        "Satellite Name": "Starlink Shell 1 542",
        "Satellite Number": 542,
        "Semi-Major Axis(m)": 6931778.249405717,
        "Time(s)": 460
    },
    {
        "Altitude(m)": 571274.3120848185,
        "Argument of Periapsis(deg)": 0.016383188537028134,
        "Eccentricity": 0.0,
        "Inclination(deg)": 53.0,
        "Latitude(deg)": -51.67637166589295,
        "Longitude(deg)": -90.48945013394545,
        "Mean Anomaly(deg)": -101.44803343283438,
        "RAAN(deg)": 119.97561780635876,
        "Satellite Name": "Starlink Shell 1 542",
        "Satellite Number": 542,
        "Semi-Major Axis(m)": 6931778.249405717,
        "Time(s)": 470
    },
    {
        "Altitude(m)": 571334.6679269173,
        "Argument of Periapsis(deg)": 0.01673176701653937,
        "Eccentricity": 0.0,
        "Inclination(deg)": 53.0,
        "Latitude(deg)": -51.830980165773944,
        "Longitude(deg)": -89.55557238009003,
        "Mean Anomaly(deg)": -100.82120222927762,
        "RAAN(deg)": 119.9750990362813,
        "Satellite Name": "Starlink Shell 1 542",
        "Satellite Number": 542,
        "Semi-Major Axis(m)": 6931778.249405717,
        "Time(s)": 480
    },
    {
        "Altitude(m)": 571391.7465055456,
        "Argument of Periapsis(deg)": 0.017080345496050607,
        "Eccentricity": 0.0,
        "Inclination(deg)": 53.0,
        "Latitude(deg)": -51.97744832840769,
        "Longitude(deg)": -88.61518292781669,
        "Mean Anomaly(deg)": -100.19437102572094,
        "RAAN(deg)": 119.97458026620382,
        "Satellite Name": "Starlink Shell 1 542",
        "Satellite Number": 542,
        "Semi-Major Axis(m)": 6931778.249405717,
        "Time(s)": 490
    },
    {
        "Altitude(m)": 571445.5250493897,
        "Argument of Periapsis(deg)": 0.017428923975561842,
        "Eccentricity": 0.0,
        "Inclination(deg)": 53.0,
        "Latitude(deg)": -52.11568088721086,
        "Longitude(deg)": -87.66856263559684,
        "Mean Anomaly(deg)": -99.56753982216419,
        "RAAN(deg)": 119.97406149612635,
        "Satellite Name": "Starlink Shell 1 542",
        "Satellite Number": 542,
        "Semi-Major Axis(m)": 6931778.249405717,
        "Time(s)": 500
    },
    {
        "Altitude(m)": 571495.9820984091,
        "Argument of Periapsis(deg)": 0.01777750245507308,
        "Eccentricity": 0.0,
        "Inclination(deg)": 53.0,
        "Latitude(deg)": -52.245586586983734,
        "Longitude(deg)": -86.71600828785857,
        "Mean Anomaly(deg)": -98.94070861860754,
        "RAAN(deg)": 119.97354272604888,
        "Satellite Name": "Starlink Shell 1 542",
        "Satellite Number": 542,
        "Semi-Major Axis(m)": 6931778.249405717,
        "Time(s)": 510
    },
    {
        "Altitude(m)": 571543.0975131296,
        "Argument of Periapsis(deg)": 0.018126080934584315,
        "Eccentricity": 0.0,
        "Inclination(deg)": 53.0,
        "Latitude(deg)": -52.36707845696157,
        "Longitude(deg)": -85.75783169082844,
        "Mean Anomaly(deg)": -98.31387741505078,
        "RAAN(deg)": 119.9730239559714,
        "Satellite Name": "Starlink Shell 1 542",
        "Satellite Number": 542,
        "Semi-Major Axis(m)": 6931778.249405717,
        "Time(s)": 520
    },
    {
        "Altitude(m)": 571586.8524833668,
        "Argument of Periapsis(deg)": 0.018474659414095554,
        "Eccentricity": 0.0,
        "Inclination(deg)": 53.0,
        "Latitude(deg)": -52.48007407760724,
        "Longitude(deg)": -84.7943586834786,
        "Mean Anomaly(deg)": -97.68704621149408,
        "RAAN(deg)": 119.97250518589392,
        "Satellite Name": "Starlink Shell 1 542",
        "Satellite Number": 542,
        "Semi-Major Axis(m)": 6931778.249405717,
        "Time(s)": 530
    },
    {
        "Altitude(m)": 571627.2295363997,
        "Argument of Periapsis(deg)": 0.018823237893606792,
        "Eccentricity": 0.0,
        "Inclination(deg)": 53.0,
        "Latitude(deg)": -52.584495839547294,
        "Longitude(deg)": -83.82592957493867,
        "Mean Anomaly(deg)": -97.06021500793736,
        "RAAN(deg)": 119.97198641581647,
        "Satellite Name": "Starlink Shell 1 542",
        "Satellite Number": 542,
        "Semi-Major Axis(m)": 6931778.249405717,
        "Time(s)": 540
    },
    {
        "Altitude(m)": 571664.2125445101,
        "Argument of Periapsis(deg)": 0.019171816373118027,
        "Eccentricity": 0.0,
        "Inclination(deg)": 53.0,
        "Latitude(deg)": -52.6802711926482,
        "Longitude(deg)": -82.85289798524433,
        "Mean Anomaly(deg)": -96.4333838043806,
        "RAAN(deg)": 119.97146764573898,
        "Satellite Name": "Starlink Shell 1 542",
        "Satellite Number": 542,
        "Semi-Major Axis(m)": 6931778.249405717,
        "Time(s)": 550
    },
    {
        "Altitude(m)": 571697.7867319789,
        "Argument of Periapsis(deg)": 0.019520394852629266,
        "Eccentricity": 0.0,
        "Inclination(deg)": 53.0,
        "Latitude(deg)": -52.7673328836479,
        "Longitude(deg)": -81.87562960242337,
        "Mean Anomaly(deg)": -95.80655260082395,
        "RAAN(deg)": 119.97094887566152,
        "Satellite Name": "Starlink Shell 1 542",
        "Satellite Number": 542,
        "Semi-Major Axis(m)": 6931778.249405717,
        "Time(s)": 560
    }
]